IRIDIUM 116             
1 43072U 17083C   23274.54856077  .00000577  00000+0  19886-3 0  9998
2 43072  86.4027  15.6092 0002215  99.3170 260.8277 14.34220556302321
IRIDIUM 130             
1 43073U 17083D   23274.51684088  .00000579  00000+0  19958-3 0  9999
2 43073  86.4035  15.8016 0002207  92.0985 268.0463 14.34220231302264
IRIDIUM 151             
1 43074U 17083E   23274.56124064  .00000601  00000+0  20764-3 0  9991
2 43074  86.4029  15.6391 0002310  96.9020 263.2438 14.34218803302294
IRIDIUM 134             
1 43075U 17083F   23274.52952790  .00000360  00000+0  12153-3 0  9998
2 43075  86.4032  15.6469 0001967  91.3012 268.8409 14.34218476302253
IRIDIUM 137             
1 43076U 17083G   23274.54220271  .00000579  00000+0  19957-3 0  9994
2 43076  86.4030  15.7148 0002222 100.8380 259.3066 14.34223529302323
IRIDIUM 141             
1 43077U 17083H   23274.53587616  .00000547  00000+0  18827-3 0  9993
2 43077  86.4027  15.6040 0002361  92.2463 267.9003 14.34214619302326
IRIDIUM 153             
1 43078U 17083J   23274.55781084  .00000507  00000+0  17413-3 0  9997
2 43078  86.4015 344.0719 0002368  85.7220 274.4247 14.34221766303438
IRIDIUM 131             
1 43079U 17083K   23274.52318353  .00000484  00000+0  16588-3 0  9996
2 43079  86.4032  15.7290 0002156  91.6611 268.4832 14.34217991302256
